ONEWEB-0034             
1 45454U 20020AG  25284.32174575  .00000582  00000+0  16063-2 0  9993
2 45454  87.8819  70.6166 0001603  95.2309 264.9002 13.11416962269979
ONEWEB-0060             
1 45455U 20020AH  25284.14031652 -.00000330  00000+0 -96759-3 0  9996
2 45455  87.8811  70.6771 0000572 136.0682 224.0492 13.11418475269900
ONEWEB-0086             
1 45456U 20020AJ  25284.11912420 -.00000287  00000+0 -84519-3 0  9997
2 45456  87.8816  70.6537 0001444 123.2063 236.9203 13.11414811269964
ONEWEB-0088             
1 45457U 20020AK  25284.32599330  .00001884  00000+0  52802-2 0  9993
2 45457  87.8832  70.5621 0001599  90.4301 269.7010 13.11407282269927
ONEWEB-0102             
1 47258U 20100A   25284.29667350  .00000129  00000+0  32427-3 0  9990
2 47258  87.8955  40.1279 0001885 102.1269 258.0071 13.12443510232088
ONEWEB-0109             
1 47259U 20100B   25284.30479074  .00000366  00000+0  98224-3 0  9997
2 47259  87.8954  40.0942 0001805 102.9128 257.2203 13.12444257231916
ONEWEB-0110             
1 47260U 20100C   25284.33073555  .00000189  00000+0  49094-3 0  9990
2 47260  87.8953  40.0726 0001544 106.8160 253.3138 13.12442889232088
ONEWEB-0111             
1 47261U 20100D   25284.28532124 -.00000238  00000+0 -69638-3 0  9990
2 47261  87.8953  40.0987 0001747 100.5596 259.5730 13.12443455231914
ONEWEB-0114             
1 47262U 20100E   25284.31614441  .00000528  00000+0  14310-2 0  9994
2 47262  87.8956  40.0874 0002027  99.7149 260.4209 13.12443846231879
ONEWEB-0117             
1 47263U 20100F   25284.30803408  .00000425  00000+0  11447-2 0  9991
2 47263  87.8955  40.0872 0001780 101.3088 258.8241 13.12444316231885
ONEWEB-0118             
1 47264U 20100G   25284.03551506 -.00000227  00000+0 -66716-3 0  9993
2 47264  87.8953  40.1404 0001952  93.1718 266.9634 13.12443785232049
ONEWEB-0119             
1 47265U 20100H   25284.29180771 -.00000055  00000+0 -18728-3 0  9993
2 47265  87.8955  40.1264 0001741 101.8813 258.2511 13.12444719232052
ONEWEB-0120             
1 47266U 20100J   25284.31466174  .00000516  00000+0  13993-2 0  9999
2 47266  87.8959  40.1240 0001833 100.7662 259.3673 13.12443766232088
ONEWEB-0121             
1 47267U 20100K   25284.30317338  .00000329  00000+0  87931-3 0  9992
2 47267  87.8954  40.0921 0001596 104.6575 255.4731 13.12445373231998
ONEWEB-0122             
1 47268U 20100L   25284.29815792  .00000109  00000+0  26743-3 0  9998
2 47268  87.8957  40.0959 0001749 105.0515 255.0807 13.12443201231901
ONEWEB-0123             
1 47269U 20100M   25284.29343522 -.00000017  00000+0 -82816-4 0  9990
2 47269  87.8954  40.1244 0001754  97.1915 262.9413 13.12444160232049
