[{"OBJECT_NAME":"ONEWEB-0034","OBJECT_ID":"2020-020AG","EPOCH":"2025-10-11T07:43:18.832800","MEAN_MOTION":13.11416962,"ECCENTRICITY":0.00016035,"INCLINATION":87.8819,"RA_OF_ASC_NODE":70.6166,"ARG_OF_PERICENTER":95.2309,"MEAN_ANOMALY":264.9002,"EPHEMERIS_TYPE":0,"CLASSIFICATION_TYPE":"U","NORAD_CAT_ID":45454,"ELEMENT_SET_NO":999,"REV_AT_EPOCH":26997,"BSTAR":0.0016063127,"MEAN_MOTION_DOT":5.82e-6,"MEAN_MOTION_DDOT":0},{"OBJECT_NAME":"ONEWEB-0060","OBJECT_ID":"2020-020AH","EPOCH":"2025-10-11T03:22:03.347328","MEAN_MOTION":13.11418475,"ECCENTRICITY":5.726e-5,"INCLINATION":87.8811,"RA_OF_ASC_NODE":70.6771,"ARG_OF_PERICENTER":136.0682,"MEAN_ANOMALY":224.0492,"EPHEMERIS_TYPE":0,"CLASSIFICATION_TYPE":"U","NORAD_CAT_ID":45455,"ELEMENT_SET_NO":999,"REV_AT_EPOCH":26990,"BSTAR":-0.00096759356,"MEAN_MOTION_DOT":-3.3e-6,"MEAN_MOTION_DDOT":0},{"OBJECT_NAME":"ONEWEB-0086","OBJECT_ID":"2020-020AJ","EPOCH":"2025-10-11T02:51:32.330880","MEAN_MOTION":13.11414811,"ECCENTRICITY":0.0001444,"INCLINATION":87.8816,"RA_OF_ASC_NODE":70.6537,"ARG_OF_PERICENTER":123.2063,"MEAN_ANOMALY":236.9203,"EPHEMERIS_TYPE":0,"CLASSIFICATION_TYPE":"U","NORAD_CAT_ID":45456,"ELEMENT_SET_NO":999,"REV_AT_EPOCH":26996,"BSTAR":-0.0008451861,"MEAN_MOTION_DOT":-2.87e-6,"MEAN_MOTION_DDOT":0},{"OBJECT_NAME":"ONEWEB-0088","OBJECT_ID":"2020-020AK","EPOCH":"2025-10-11T07:49:25.821120","MEAN_MOTION":13.11407282,"ECCENTRICITY":0.00015996,"INCLINATION":87.8832,"RA_OF_ASC_NODE":70.5621,"ARG_OF_PERICENTER":90.4301,"MEAN_ANOMALY":269.701,"EPHEMERIS_TYPE":0,"CLASSIFICATION_TYPE":"U","NORAD_CAT_ID":45457,"ELEMENT_SET_NO":999,"REV_AT_EPOCH":26992,"BSTAR":0.0052802441,"MEAN_MOTION_DOT":1.884e-5,"MEAN_MOTION_DDOT":0},{"OBJECT_NAME":"ONEWEB-0102","OBJECT_ID":"2020-100A","EPOCH":"2025-10-11T07:07:12.590400","MEAN_MOTION":13.1244351,"ECCENTRICITY":0.00018852,"INCLINATION":87.8955,"RA_OF_ASC_NODE":40.1279,"ARG_OF_PERICENTER":102.1269,"MEAN_ANOMALY":258.0071,"EPHEMERIS_TYPE":0,"CLASSIFICATION_TYPE":"U","NORAD_CAT_ID":47258,"ELEMENT_SET_NO":999,"REV_AT_EPOCH":23208,"BSTAR":0.00032426977,"MEAN_MOTION_DOT":1.29e-6,"MEAN_MOTION_DDOT":0},{"OBJECT_NAME":"ONEWEB-0109","OBJECT_ID":"2020-100B","EPOCH":"2025-10-11T07:18:53.919936","MEAN_MOTION":13.12444257,"ECCENTRICITY":0.00018055,"INCLINATION":87.8954,"RA_OF_ASC_NODE":40.0942,"ARG_OF_PERICENTER":102.9128,"MEAN_ANOMALY":257.2203,"EPHEMERIS_TYPE":0,"CLASSIFICATION_TYPE":"U","NORAD_CAT_ID":47259,"ELEMENT_SET_NO":999,"REV_AT_EPOCH":23191,"BSTAR":0.00098224077,"MEAN_MOTION_DOT":3.66e-6,"MEAN_MOTION_DDOT":0},{"OBJECT_NAME":"ONEWEB-0110","OBJECT_ID":"2020-100C","EPOCH":"2025-10-11T07:56:15.551520","MEAN_MOTION":13.12442889,"ECCENTRICITY":0.00015443,"INCLINATION":87.8953,"RA_OF_ASC_NODE":40.0726,"ARG_OF_PERICENTER":106.816,"MEAN_ANOMALY":253.3138,"EPHEMERIS_TYPE":0,"CLASSIFICATION_TYPE":"U","NORAD_CAT_ID":47260,"ELEMENT_SET_NO":999,"REV_AT_EPOCH":23208,"BSTAR":0.00049094337,"MEAN_MOTION_DOT":1.89e-6,"MEAN_MOTION_DDOT":0},{"OBJECT_NAME":"ONEWEB-0111","OBJECT_ID":"2020-100D","EPOCH":"2025-10-11T06:50:51.755136","MEAN_MOTION":13.12443455,"ECCENTRICITY":0.00017472,"INCLINATION":87.8953,"RA_OF_ASC_NODE":40.0987,"ARG_OF_PERICENTER":100.5596,"MEAN_ANOMALY":259.573,"EPHEMERIS_TYPE":0,"CLASSIFICATION_TYPE":"U","NORAD_CAT_ID":47261,"ELEMENT_SET_NO":999,"REV_AT_EPOCH":23191,"BSTAR":-0.00069638335,"MEAN_MOTION_DOT":-2.38e-6,"MEAN_MOTION_DDOT":0},{"OBJECT_NAME":"ONEWEB-0114","OBJECT_ID":"2020-100E","EPOCH":"2025-10-11T07:35:14.877024","MEAN_MOTION":13.12443846,"ECCENTRICITY":0.00020273,"INCLINATION":87.8956,"RA_OF_ASC_NODE":40.0874,"ARG_OF_PERICENTER":99.7149,"MEAN_ANOMALY":260.4209,"EPHEMERIS_TYPE":0,"CLASSIFICATION_TYPE":"U","NORAD_CAT_ID":47262,"ELEMENT_SET_NO":999,"REV_AT_EPOCH":23187,"BSTAR":0.0014309964,"MEAN_MOTION_DOT":5.28e-6,"MEAN_MOTION_DDOT":0},{"OBJECT_NAME":"ONEWEB-0117","OBJECT_ID":"2020-100F","EPOCH":"2025-10-11T07:23:34.144512","MEAN_MOTION":13.12444316,"ECCENTRICITY":0.000178,"INCLINATION":87.8955,"RA_OF_ASC_NODE":40.0872,"ARG_OF_PERICENTER":101.3088,"MEAN_ANOMALY":258.8241,"EPHEMERIS_TYPE":0,"CLASSIFICATION_TYPE":"U","NORAD_CAT_ID":47263,"ELEMENT_SET_NO":999,"REV_AT_EPOCH":23188,"BSTAR":0.001144651,"MEAN_MOTION_DOT":4.25e-6,"MEAN_MOTION_DDOT":0},{"OBJECT_NAME":"ONEWEB-0118","OBJECT_ID":"2020-100G","EPOCH":"2025-10-11T00:51:08.501184","MEAN_MOTION":13.12443785,"ECCENTRICITY":0.00019528,"INCLINATION":87.8953,"RA_OF_ASC_NODE":40.1404,"ARG_OF_PERICENTER":93.1718,"MEAN_ANOMALY":266.9634,"EPHEMERIS_TYPE":0,"CLASSIFICATION_TYPE":"U","NORAD_CAT_ID":47264,"ELEMENT_SET_NO":999,"REV_AT_EPOCH":23204,"BSTAR":-0.00066715702,"MEAN_MOTION_DOT":-2.27e-6,"MEAN_MOTION_DDOT":0},{"OBJECT_NAME":"ONEWEB-0119","OBJECT_ID":"2020-100H","EPOCH":"2025-10-11T07:00:12.186144","MEAN_MOTION":13.12444719,"ECCENTRICITY":0.0001741,"INCLINATION":87.8955,"RA_OF_ASC_NODE":40.1264,"ARG_OF_PERICENTER":101.8813,"MEAN_ANOMALY":258.2511,"EPHEMERIS_TYPE":0,"CLASSIFICATION_TYPE":"U","NORAD_CAT_ID":47265,"ELEMENT_SET_NO":999,"REV_AT_EPOCH":23205,"BSTAR":-0.00018727992,"MEAN_MOTION_DOT":-5.5e-7,"MEAN_MOTION_DDOT":0},{"OBJECT_NAME":"ONEWEB-0120","OBJECT_ID":"2020-100J","EPOCH":"2025-10-11T07:33:06.774336","MEAN_MOTION":13.12443766,"ECCENTRICITY":0.00018338,"INCLINATION":87.8959,"RA_OF_ASC_NODE":40.124,"ARG_OF_PERICENTER":100.7662,"MEAN_ANOMALY":259.3673,"EPHEMERIS_TYPE":0,"CLASSIFICATION_TYPE":"U","NORAD_CAT_ID":47266,"ELEMENT_SET_NO":999,"REV_AT_EPOCH":23208,"BSTAR":0.0013993347,"MEAN_MOTION_DOT":5.16e-6,"MEAN_MOTION_DDOT":0},{"OBJECT_NAME":"ONEWEB-0121","OBJECT_ID":"2020-100K","EPOCH":"2025-10-11T07:16:34.180032","MEAN_MOTION":13.12445373,"ECCENTRICITY":0.00015962,"INCLINATION":87.8954,"RA_OF_ASC_NODE":40.0921,"ARG_OF_PERICENTER":104.6575,"MEAN_ANOMALY":255.4731,"EPHEMERIS_TYPE":0,"CLASSIFICATION_TYPE":"U","NORAD_CAT_ID":47267,"ELEMENT_SET_NO":999,"REV_AT_EPOCH":23199,"BSTAR":0.00087930545,"MEAN_MOTION_DOT":3.29e-6,"MEAN_MOTION_DDOT":0},{"OBJECT_NAME":"ONEWEB-0122","OBJECT_ID":"2020-100L","EPOCH":"2025-10-11T07:09:20.844288","MEAN_MOTION":13.12443201,"ECCENTRICITY":0.00017494,"INCLINATION":87.8957,"RA_OF_ASC_NODE":40.0959,"ARG_OF_PERICENTER":105.0515,"MEAN_ANOMALY":255.0807,"EPHEMERIS_TYPE":0,"CLASSIFICATION_TYPE":"U","NORAD_CAT_ID":47268,"ELEMENT_SET_NO":999,"REV_AT_EPOCH":23190,"BSTAR":0.00026742646,"MEAN_MOTION_DOT":1.09e-6,"MEAN_MOTION_DDOT":0},{"OBJECT_NAME":"ONEWEB-0123","OBJECT_ID":"2020-100M","EPOCH":"2025-10-11T07:02:32.803008","MEAN_MOTION":13.1244416,"ECCENTRICITY":0.00017541,"INCLINATION":87.8954,"RA_OF_ASC_NODE":40.1244,"ARG_OF_PERICENTER":97.1915,"MEAN_ANOMALY":262.9413,"EPHEMERIS_TYPE":0,"CLASSIFICATION_TYPE":"U","NORAD_CAT_ID":47269,"ELEMENT_SET_NO":999,"REV_AT_EPOCH":23204,"BSTAR":-8.2816054e-5,"MEAN_MOTION_DOT":-1.7e-7,"MEAN_MOTION_DDOT":0}]
